OBJECT_NAME,OBJECT_ID,EPOCH,MEAN_MOTION,ECCENTRICITY,INCLINATION,RA_OF_ASC_NODE,ARG_OF_PERICENTER,MEAN_ANOMALY,EPHEMERIS_TYPE,CLASSIFICATION_TYPE,NORAD_CAT_ID,ELEMENT_SET_NO,REV_AT_EPOCH,BSTAR,MEAN_MOTION_DOT,MEAN_MOTION_DDOT
STARLINK-34169,2025-101F,2026-06-26T19:06:30.722688,15.27588762,.00025872,43.0017,101.6177,281.6722,78.3839,0,U,63999,999,6374,.63487923E-3,.17255E-3,0
STARLINK-34152,2025-101G,2026-06-26T19:15:45.861696,15.27580030,.00017287,43.0005,101.6632,264.3967,95.6688,0,U,64000,999,6374,.43116884E-3,.11621E-3,0
STARLINK-33927,2025-101H,2026-06-26T20:13:07.241088,15.27575939,.00015218,43.0034,101.9693,257.9402,102.1280,0,U,64001,999,6374,.61279057E-3,.16636E-3,0
STARLINK-33898,2025-101J,2026-06-26T20:02:01.694976,15.27578995,.00014196,43.0026,101.9128,264.7856,95.2834,0,U,64002,999,6374,.61212846E-3,.1662E-3,0
STARLINK-33928,2025-101K,2026-06-26T20:18:27.945792,15.27558616,.00015401,43.0041,101.1316,260.9820,99.0857,0,U,64003,999,6375,.59534192E-3,.16146E-3,0
STARLINK-33758,2025-101L,2026-06-26T11:45:21.310272,15.27556526,.0001857,42.9978,103.6111,288.9593,71.1057,0,U,64004,999,6369,.54066E-3,.14635E-3,0
STARLINK-33936,2025-101M,2026-06-26T20:46:12.236160,15.27619143,.00060417,42.9991,101.2741,305.2277,54.8009,0,U,64005,999,6375,.11780659E-2,.32351E-3,0
STARLINK-33931,2025-101N,2026-06-26T12:29:31.407360,15.27591326,.0001908,43.0024,102.9852,279.1607,80.9029,0,U,64006,999,6372,.57886E-3,.15706E-3,0
STARLINK-33759,2025-101P,2026-06-26T20:35:06.883584,15.27599684,.00014555,42.9969,101.2084,261.1891,98.8796,0,U,64007,999,6375,.73357513E-3,.19991E-3,0
STARLINK-34163,2025-101Q,2026-06-26T19:43:29.246592,15.27618494,.00014591,42.9984,101.8096,258.1117,101.9571,0,U,64008,999,6374,.68204246E-3,.18576E-3,0
STARLINK-34077,2025-101R,2026-06-26T20:33:15.850080,15.27598562,.00013919,42.9969,101.1976,251.2647,108.8054,0,U,64009,999,6375,.70306735E-3,.19146E-3,0
STARLINK-34113,2025-101S,2026-06-26T19:54:37.169568,15.27545555,.00019294,43.0045,101.8686,262.8561,97.2071,0,U,64010,999,6374,.40538688E-3,.10898E-3,0
STARLINK-34193,2025-101T,2026-06-26T19:52:46.154208,15.27597989,.00015527,42.9969,101.8522,256.9559,103.1120,0,U,64011,999,6374,.11032061E-2,.30237E-3,0
STARLINK-34078,2025-101U,2026-06-26T20:29:34.534752,15.27568945,.00015169,43.0025,101.1834,277.4451,82.6228,0,U,64012,999,6375,.67467008E-3,.18343E-3,0
STARLINK-34182,2025-101V,2026-06-26T19:57:09.975744,15.27570330,.0001402,43.0031,98.4174,267.5500,92.5191,0,U,64013,999,6378,.10631506E-3,.2664E-4,0
STARLINK-34192,2025-101W,2026-06-26T20:05:43.330848,15.27567329,.00011898,42.9996,101.9220,253.8892,106.1828,0,U,64014,999,6374,.78857619E-3,.21493E-3,0
STARLINK-34093,2025-101X,2026-06-26T19:04:39.643392,15.27590466,.00012244,43.0023,101.5996,247.8270,112.2452,0,U,64015,999,6374,.89072691E-3,.24337E-3,0
STARLINK-34016,2025-101Y,2026-06-26T20:31:25.033440,15.27586146,.00018396,43.0055,101.1929,275.6643,84.3999,0,U,64016,999,6375,.79441703E-3,.21667E-3,0
STARLINK-34161,2025-101Z,2026-06-26T20:44:21.802272,15.27603719,.00013363,42.9939,101.2485,230.0867,129.9868,0,U,64017,999,6375,.88760983E-3,.24261E-3,0
STARLINK-34162,2025-101AA,2026-06-26T19:28:43.082400,15.27585599,.00006517,42.9995,101.7243,160.8987,199.1889,0,U,64018,999,6374,.70856621E-3,.1929E-3,0
STARLINK-34155,2025-101AB,2026-06-26T19:39:48.825504,15.27568862,.00012076,43.0006,101.7817,268.8421,91.2292,0,U,64019,999,6374,.25334163E-3,.6713E-4,0
STARLINK-34141,2025-101AC,2026-06-26T11:43:28.388064,15.27605409,.0000453,42.9995,103.5951,263.8709,96.2091,0,U,64020,999,6369,.79808E-3,.21781E-3,0
STARLINK-34062,2025-101AD,2026-06-26T20:36:57.657888,15.27600951,.00020322,42.9948,101.2090,180.6718,179.4131,0,U,64021,999,6375,.73458873E-3,.2002E-3,0
STARLINK-34051,2025-102A,2026-06-26T18:50:51.092448,14.98335079,.00041264,70.0001,199.3865,266.0180,94.0507,0,U,64022,999,6229,.32118792E-3,.3742E-4,0
STARLINK-34087,2025-102B,2026-06-26T22:00:01.999584,14.98296104,.00041014,69.9996,199.1528,263.7805,355.6191,0,U,64023,999,571,.58483424E-2,.70336E-3,0
STARLINK-34184,2025-102C,2026-06-26T20:02:42.643392,14.98335226,.0003439,70.0003,199.1540,273.9040,86.1726,0,U,64024,999,6219,.31742391E-3,.3697E-4,0
STARLINK-34088,2025-102D,2026-06-26T19:26:54.513888,14.98336552,.00039586,69.9998,199.4674,265.4284,94.6423,0,U,64025,999,6230,.2453998E-3,.2837E-4,0
STARLINK-33992,2025-102E,2026-06-26T11:38:01.364064,14.98334116,.00038275,70.0000,200.3428,267.1040,92.9681,0,U,64026,999,6233,.15526017E-3,.176E-4,0
STARLINK-33967,2025-102F,2026-06-26T18:50:37.019616,14.98346357,.00038943,70.0002,199.3817,266.4442,93.6272,0,U,64027,999,6223,.26799801E-3,.3108E-4,0
STARLINK-33953,2025-102G,2026-06-26T11:43:59.565504,14.98335222,.00040807,70.0002,199.9507,266.7358,93.3335,0,U,64028,999,6235,.17645311E-3,.2013E-4,0
