STARLINK-34169          
1 63999U 25101F   26177.79618892  .00017255  00000+0  63488-3 0  9999
2 63999  43.0017 101.6177 0002587 281.6722  78.3839 15.27588762 63745
STARLINK-34152          
1 64000U 25101G   26177.80261414  .00011621  00000+0  43117-3 0  9997
2 64000  43.0005 101.6632 0001728 264.3967  95.6688 15.27580030 63741
STARLINK-33927          
1 64001U 25101H   26177.84244492  .00016636  00000+0  61279-3 0  9999
2 64001  43.0034 101.9693 0001521 257.9402 102.1280 15.27575939 63741
STARLINK-33898          
1 64002U 25101J   26177.83474184  .00016620  00000+0  61213-3 0  9993
2 64002  43.0026 101.9128 0001419 264.7856  95.2834 15.27578995 63743
STARLINK-33928          
1 64003U 25101K   26177.84615678  .00016146  00000+0  59534-3 0  9996
2 64003  43.0041 101.1316 0001540 260.9820  99.0857 15.27558616 63752
STARLINK-33758          
1 64004U 25101L   26177.48982998  .00014635  00000+0  54066-3 0  9995
2 64004  42.9978 103.6111 0001857 288.9593  71.1057 15.27556526 63692
STARLINK-33936          
1 64005U 25101M   26177.86541940  .00032351  00000+0  11781-2 0  9997
2 64005  42.9991 101.2741 0006041 305.2277  54.8009 15.27619143 63750
STARLINK-33931          
1 64006U 25101N   26177.52050240  .00015706  00000+0  57886-3 0  9991
2 64006  43.0024 102.9852 0001908 279.1607  80.9029 15.27591326 63725
STARLINK-33759          
1 64007U 25101P   26177.85771856  .00019991  00000+0  73358-3 0  9993
2 64007  42.9969 101.2084 0001455 261.1891  98.8796 15.27599684 63751
STARLINK-34163          
1 64008U 25101Q   26177.82186628  .00018576  00000+0  68204-3 0  9990
2 64008  42.9984 101.8096 0001459 258.1117 101.9571 15.27618494 63746
STARLINK-34077          
1 64009U 25101R   26177.85643345  .00019146  00000+0  70307-3 0  9999
2 64009  42.9969 101.1976 0001391 251.2647 108.8054 15.27598562 63753
STARLINK-34113          
1 64010U 25101S   26177.82959687  .00010898  00000+0  40539-3 0  9996
2 64010  43.0045 101.8686 0001929 262.8561  97.2071 15.27545555 63740
STARLINK-34193          
1 64011U 25101T   26177.82831197  .00030237  00000+0  11032-2 0  9996
2 64011  42.9969 101.8522 0001552 256.9559 103.1120 15.27597989 63746
STARLINK-34078          
1 64012U 25101U   26177.85387193  .00018343  00000+0  67467-3 0  9990
2 64012  43.0025 101.1834 0001516 277.4451  82.6228 15.27568945 63751
STARLINK-34182          
1 64013U 25101V   26177.83136546  .00002664  00000+0  10632-3 0  9994
2 64013  43.0031  98.4174 0001402 267.5500  92.5191 15.27570330 63786
STARLINK-34192          
1 64014U 25101W   26177.83730707  .00021493  00000+0  78858-3 0  9999
2 64014  42.9996 101.9220 0001189 253.8892 106.1828 15.27567329 63740
STARLINK-34093          
1 64015U 25101X   26177.79490328  .00024337  00000+0  89073-3 0  9998
2 64015  43.0023 101.5996 0001224 247.8270 112.2452 15.27590466 63742
STARLINK-34016          
1 64016U 25101Y   26177.85515085  .00021667  00000+0  79442-3 0  9996
2 64016  43.0055 101.1929 0001839 275.6643  84.3999 15.27586146 63751
STARLINK-34161          
1 64017U 25101Z   26177.86414123  .00024261  00000+0  88761-3 0  9996
2 64017  42.9939 101.2485 0001336 230.0867 129.9868 15.27603719 63751
STARLINK-34162          
1 64018U 25101AA  26177.81160975  .00019290  00000+0  70857-3 0  9998
2 64018  42.9995 101.7243 0000651 160.8987 199.1889 15.27585599 63749
STARLINK-34155          
1 64019U 25101AB  26177.81931511  .00006713  00000+0  25334-3 0  9997
2 64019  43.0006 101.7817 0001207 268.8421  91.2292 15.27568862 63746
STARLINK-34141          
1 64020U 25101AC  26177.48852301  .00021781  00000+0  79808-3 0  9998
2 64020  42.9995 103.5951 0000453 263.8709  96.2091 15.27605409 63693
STARLINK-34062          
1 64021U 25101AD  26177.85900067  .00020020  00000+0  73459-3 0  9994
2 64021  42.9948 101.2090 0002032 180.6718 179.4131 15.27600951 63755
STARLINK-34051          
1 64022U 25102A   26177.78531357  .00003742  00000+0  32119-3 0  9990
2 64022  70.0001 199.3865 0004126 266.0180  94.0507 14.98335079 62294
STARLINK-34087          
1 64023U 25102B   26177.91668981  .00070336  00000+0  58483-2 0  9994
2 64023  69.9996 199.1528 0004101 263.7805 355.6191 14.98296104  5714
STARLINK-34184          
1 64024U 25102C   26177.83521578  .00003697  00000+0  31742-3 0  9992
2 64024  70.0003 199.1540 0003439 273.9040  86.1726 14.98335226 62192
STARLINK-34088          
1 64025U 25102D   26177.81035317  .00002837  00000+0  24540-3 0  9995
2 64025  69.9998 199.4674 0003958 265.4284  94.6423 14.98336552 62300
STARLINK-33992          
1 64026U 25102E   26177.48473801  .00001760  00000+0  15526-3 0  9991
2 64026  70.0000 200.3428 0003827 267.1040  92.9681 14.98334116 62335
STARLINK-33967          
1 64027U 25102F   26177.78515069  .00003108  00000+0  26800-3 0  9993
2 64027  70.0002 199.3817 0003894 266.4442  93.6272 14.98346357 62232
STARLINK-33953          
1 64028U 25102G   26177.48888386  .00002013  00000+0  17645-3 0  9997
2 64028  70.0002 199.9507 0004080 266.7358  93.3335 14.98335222 62351
